STARLINK-3644           
1 51987U 22025AH  26066.33005604  .00004179  00000+0  28052-3 0  9992
2 51987  53.2184  49.7128 0001433  82.4776 277.6379 15.08838860220700
STARLINK-3640           
1 51988U 22025AJ  26066.37788803  .00000234  00000+0  32804-4 0  9995
2 51988  53.2185  49.4980 0001672  83.9768 276.1414 15.08835442220715
STARLINK-3642           
1 51989U 22025AK  26066.39261683  .00000490  00000+0  48886-4 0  9991
2 51989  53.2182  49.4337 0001490  95.4940 264.6222 15.08824510220710
STARLINK-3657           
1 51990U 22025AL  26066.29508868 -.00000094  00000+0  12217-4 0  9991
2 51990  53.2177  29.8691 0001476  92.2561 267.8600 15.08838067220974
STARLINK-3652           
1 51991U 22025AM  26066.38525113  .00000383  00000+0  42164-4 0  9998
2 51991  53.2185  49.4663 0001400  92.1802 267.9351 15.08834735220719
STARLINK-3643           
1 51992U 22025AN  26066.21780676  .00000531  00000+0  51470-4 0  9993
2 51992  53.2189  30.2195 0001486  85.2644 274.8518 15.08842759220530
STARLINK-3648           
1 51993U 22025AP  26066.17548718 -.00000038  00000+0  15736-4 0  9996
2 51993  53.2184  50.4050 0001500  87.5220 272.5943 15.08844787220688
STARLINK-3647           
1 51994U 22025AQ  26066.28037104  .00000203  00000+0  30852-4 0  9990
2 51994  53.2186  29.9374 0001357  99.0532 261.0614 15.08835642220559
STARLINK-3636           
1 51995U 22025AR  26066.62260186  .00000681  00000+0  60869-4 0  9998
2 51995  53.2185  28.4010 0001478  84.7609 275.3552 15.08843661220593
STARLINK-3538           
1 51996U 22025AS  26066.27666085  .00004446  00000+0  29702-3 0  9991
2 51996  53.2179  29.9511 0001277  96.4321 263.6817 15.08869676220551
STARLINK-3589           
1 51997U 22025AT  26066.28772798 -.00000297  00000+0 -57099-6 0  9997
2 51997  53.2181  29.9053 0001281  97.2149 262.8989 15.08849008220545
STARLINK-3618           
1 51998U 22025AU  26066.18100238  .00000975  00000+0  79343-4 0  9996
2 51998  53.2182  30.3802 0001390  86.1292 273.9859 15.08838467220548
STARLINK-3653           
1 52000U 22025AW  26066.62995143  .00000896  00000+0  74365-4 0  9998
2 52000  53.2189  28.2777 0001440  97.5604 262.5552 15.08844255220610
STARLINK-3659           
1 52001U 22025AX  26066.31075973  .00001018  00000+0  82037-4 0  9997
2 52001  53.2184  29.8080 0001345  87.7379 272.3767 15.08842865220560
STARLINK-3668           
1 52002U 22025AY  26066.30982438 -.00000802  00000+0 -32290-4 0  9998
2 52002  53.2179  29.8399 0001307  89.9887 270.1255 15.08831282220563
STARLINK-3712           
1 52090U 22029C   26066.49472191  .00001801  00000+0  13121-3 0  9998
2 52090  53.2165  98.9746 0001341  93.9604 266.1542 15.08843688220329
