[{"OBJECT_NAME":"STARLINK-3644","OBJECT_ID":"2022-025AH","EPOCH":"2026-03-07T07:55:16.841856","MEAN_MOTION":15.0883886,"ECCENTRICITY":0.00014335,"INCLINATION":53.2184,"RA_OF_ASC_NODE":49.7128,"ARG_OF_PERICENTER":82.4776,"MEAN_ANOMALY":277.6379,"EPHEMERIS_TYPE":0,"CLASSIFICATION_TYPE":"U","NORAD_CAT_ID":51987,"ELEMENT_SET_NO":999,"REV_AT_EPOCH":22070,"BSTAR":0.00028051884,"MEAN_MOTION_DOT":4.179e-5,"MEAN_MOTION_DDOT":0},{"OBJECT_NAME":"STARLINK-3640","OBJECT_ID":"2022-025AJ","EPOCH":"2026-03-07T09:04:09.525792","MEAN_MOTION":15.08835442,"ECCENTRICITY":0.00016724,"INCLINATION":53.2185,"RA_OF_ASC_NODE":49.498,"ARG_OF_PERICENTER":83.9768,"MEAN_ANOMALY":276.1414,"EPHEMERIS_TYPE":0,"CLASSIFICATION_TYPE":"U","NORAD_CAT_ID":51988,"ELEMENT_SET_NO":999,"REV_AT_EPOCH":22071,"BSTAR":3.2804393e-5,"MEAN_MOTION_DOT":2.34e-6,"MEAN_MOTION_DDOT":0},{"OBJECT_NAME":"STARLINK-3642","OBJECT_ID":"2022-025AK","EPOCH":"2026-03-07T09:25:22.094112","MEAN_MOTION":15.0882451,"ECCENTRICITY":0.00014907,"INCLINATION":53.2182,"RA_OF_ASC_NODE":49.4337,"ARG_OF_PERICENTER":95.494,"MEAN_ANOMALY":264.6222,"EPHEMERIS_TYPE":0,"CLASSIFICATION_TYPE":"U","NORAD_CAT_ID":51989,"ELEMENT_SET_NO":999,"REV_AT_EPOCH":22071,"BSTAR":4.888608e-5,"MEAN_MOTION_DOT":4.9e-6,"MEAN_MOTION_DDOT":0},{"OBJECT_NAME":"STARLINK-3657","OBJECT_ID":"2022-025AL","EPOCH":"2026-03-07T07:04:55.661952","MEAN_MOTION":15.08838067,"ECCENTRICITY":0.0001476,"INCLINATION":53.2177,"RA_OF_ASC_NODE":29.8691,"ARG_OF_PERICENTER":92.2561,"MEAN_ANOMALY":267.86,"EPHEMERIS_TYPE":0,"CLASSIFICATION_TYPE":"U","NORAD_CAT_ID":51990,"ELEMENT_SET_NO":999,"REV_AT_EPOCH":22097,"BSTAR":1.2217e-5,"MEAN_MOTION_DOT":-9.4e-7,"MEAN_MOTION_DDOT":0},{"OBJECT_NAME":"STARLINK-3652","OBJECT_ID":"2022-025AM","EPOCH":"2026-03-07T09:14:45.697632","MEAN_MOTION":15.08834735,"ECCENTRICITY":0.00014002,"INCLINATION":53.2185,"RA_OF_ASC_NODE":49.4663,"ARG_OF_PERICENTER":92.1802,"MEAN_ANOMALY":267.9351,"EPHEMERIS_TYPE":0,"CLASSIFICATION_TYPE":"U","NORAD_CAT_ID":51991,"ELEMENT_SET_NO":999,"REV_AT_EPOCH":22071,"BSTAR":4.2163614e-5,"MEAN_MOTION_DOT":3.83e-6,"MEAN_MOTION_DDOT":0},{"OBJECT_NAME":"STARLINK-3643","OBJECT_ID":"2022-025AN","EPOCH":"2026-03-07T05:13:38.504064","MEAN_MOTION":15.08842759,"ECCENTRICITY":0.0001486,"INCLINATION":53.2189,"RA_OF_ASC_NODE":30.2195,"ARG_OF_PERICENTER":85.2644,"MEAN_ANOMALY":274.8518,"EPHEMERIS_TYPE":0,"CLASSIFICATION_TYPE":"U","NORAD_CAT_ID":51992,"ELEMENT_SET_NO":999,"REV_AT_EPOCH":22053,"BSTAR":5.147e-5,"MEAN_MOTION_DOT":5.31e-6,"MEAN_MOTION_DDOT":0},{"OBJECT_NAME":"STARLINK-3648","OBJECT_ID":"2022-025AP","EPOCH":"2026-03-07T04:12:42.092352","MEAN_MOTION":15.08844787,"ECCENTRICITY":0.00015001,"INCLINATION":53.2184,"RA_OF_ASC_NODE":50.405,"ARG_OF_PERICENTER":87.522,"MEAN_ANOMALY":272.5943,"EPHEMERIS_TYPE":0,"CLASSIFICATION_TYPE":"U","NORAD_CAT_ID":51993,"ELEMENT_SET_NO":999,"REV_AT_EPOCH":22068,"BSTAR":1.5735738e-5,"MEAN_MOTION_DOT":-3.8e-7,"MEAN_MOTION_DDOT":0},{"OBJECT_NAME":"STARLINK-3647","OBJECT_ID":"2022-025AQ","EPOCH":"2026-03-07T06:43:44.057856","MEAN_MOTION":15.08835642,"ECCENTRICITY":0.0001357,"INCLINATION":53.2186,"RA_OF_ASC_NODE":29.9374,"ARG_OF_PERICENTER":99.0532,"MEAN_ANOMALY":261.0614,"EPHEMERIS_TYPE":0,"CLASSIFICATION_TYPE":"U","NORAD_CAT_ID":51994,"ELEMENT_SET_NO":999,"REV_AT_EPOCH":22055,"BSTAR":3.0852e-5,"MEAN_MOTION_DOT":2.03e-6,"MEAN_MOTION_DDOT":0},{"OBJECT_NAME":"STARLINK-3636","OBJECT_ID":"2022-025AR","EPOCH":"2026-03-07T14:56:32.800704","MEAN_MOTION":15.08843661,"ECCENTRICITY":0.00014783,"INCLINATION":53.2185,"RA_OF_ASC_NODE":28.401,"ARG_OF_PERICENTER":84.7609,"MEAN_ANOMALY":275.3552,"EPHEMERIS_TYPE":0,"CLASSIFICATION_TYPE":"U","NORAD_CAT_ID":51995,"ELEMENT_SET_NO":999,"REV_AT_EPOCH":22059,"BSTAR":6.0868546e-5,"MEAN_MOTION_DOT":6.81e-6,"MEAN_MOTION_DDOT":0},{"OBJECT_NAME":"STARLINK-3538","OBJECT_ID":"2022-025AS","EPOCH":"2026-03-07T06:38:23.497440","MEAN_MOTION":15.08869676,"ECCENTRICITY":0.0001277,"INCLINATION":53.2179,"RA_OF_ASC_NODE":29.9511,"ARG_OF_PERICENTER":96.4321,"MEAN_ANOMALY":263.6817,"EPHEMERIS_TYPE":0,"CLASSIFICATION_TYPE":"U","NORAD_CAT_ID":51996,"ELEMENT_SET_NO":999,"REV_AT_EPOCH":22055,"BSTAR":0.00029702,"MEAN_MOTION_DOT":4.446e-5,"MEAN_MOTION_DDOT":0},{"OBJECT_NAME":"STARLINK-3589","OBJECT_ID":"2022-025AT","EPOCH":"2026-03-07T06:54:19.697472","MEAN_MOTION":15.08849008,"ECCENTRICITY":0.0001281,"INCLINATION":53.2181,"RA_OF_ASC_NODE":29.9053,"ARG_OF_PERICENTER":97.2149,"MEAN_ANOMALY":262.8989,"EPHEMERIS_TYPE":0,"CLASSIFICATION_TYPE":"U","NORAD_CAT_ID":51997,"ELEMENT_SET_NO":999,"REV_AT_EPOCH":22054,"BSTAR":-5.7099e-7,"MEAN_MOTION_DOT":-2.97e-6,"MEAN_MOTION_DDOT":0},{"OBJECT_NAME":"STARLINK-3618","OBJECT_ID":"2022-025AU","EPOCH":"2026-03-07T04:20:38.605632","MEAN_MOTION":15.08838467,"ECCENTRICITY":0.00013906,"INCLINATION":53.2182,"RA_OF_ASC_NODE":30.3802,"ARG_OF_PERICENTER":86.1292,"MEAN_ANOMALY":273.9859,"EPHEMERIS_TYPE":0,"CLASSIFICATION_TYPE":"U","NORAD_CAT_ID":51998,"ELEMENT_SET_NO":999,"REV_AT_EPOCH":22054,"BSTAR":7.9342728e-5,"MEAN_MOTION_DOT":9.75e-6,"MEAN_MOTION_DDOT":0},{"OBJECT_NAME":"STARLINK-3653","OBJECT_ID":"2022-025AW","EPOCH":"2026-03-07T15:07:07.803552","MEAN_MOTION":15.08844255,"ECCENTRICITY":0.00014403,"INCLINATION":53.2189,"RA_OF_ASC_NODE":28.2777,"ARG_OF_PERICENTER":97.5604,"MEAN_ANOMALY":262.5552,"EPHEMERIS_TYPE":0,"CLASSIFICATION_TYPE":"U","NORAD_CAT_ID":52000,"ELEMENT_SET_NO":999,"REV_AT_EPOCH":22061,"BSTAR":7.4365235e-5,"MEAN_MOTION_DOT":8.96e-6,"MEAN_MOTION_DDOT":0},{"OBJECT_NAME":"STARLINK-3659","OBJECT_ID":"2022-025AX","EPOCH":"2026-03-07T07:27:29.640672","MEAN_MOTION":15.08842865,"ECCENTRICITY":0.0001345,"INCLINATION":53.2184,"RA_OF_ASC_NODE":29.808,"ARG_OF_PERICENTER":87.7379,"MEAN_ANOMALY":272.3767,"EPHEMERIS_TYPE":0,"CLASSIFICATION_TYPE":"U","NORAD_CAT_ID":52001,"ELEMENT_SET_NO":999,"REV_AT_EPOCH":22056,"BSTAR":8.2037e-5,"MEAN_MOTION_DOT":1.018e-5,"MEAN_MOTION_DDOT":0},{"OBJECT_NAME":"STARLINK-3668","OBJECT_ID":"2022-025AY","EPOCH":"2026-03-07T07:26:08.826432","MEAN_MOTION":15.08831282,"ECCENTRICITY":0.0001307,"INCLINATION":53.2179,"RA_OF_ASC_NODE":29.8399,"ARG_OF_PERICENTER":89.9887,"MEAN_ANOMALY":270.1255,"EPHEMERIS_TYPE":0,"CLASSIFICATION_TYPE":"U","NORAD_CAT_ID":52002,"ELEMENT_SET_NO":999,"REV_AT_EPOCH":22056,"BSTAR":-3.229e-5,"MEAN_MOTION_DOT":-8.02e-6,"MEAN_MOTION_DDOT":0},{"OBJECT_NAME":"STARLINK-3712","OBJECT_ID":"2022-029C","EPOCH":"2026-03-07T11:52:23.973024","MEAN_MOTION":15.08843688,"ECCENTRICITY":0.00013414,"INCLINATION":53.2165,"RA_OF_ASC_NODE":98.9746,"ARG_OF_PERICENTER":93.9604,"MEAN_ANOMALY":266.1542,"EPHEMERIS_TYPE":0,"CLASSIFICATION_TYPE":"U","NORAD_CAT_ID":52090,"ELEMENT_SET_NO":999,"REV_AT_EPOCH":22032,"BSTAR":0.00013120796,"MEAN_MOTION_DOT":1.801e-5,"MEAN_MOTION_DDOT":0}]
